*******************************************************************************
 Revised: April 12, 2021                Venus                           299 / 2
 
 PHYSICAL DATA (updated 2020-Oct-19):
  Vol. Mean Radius (km) =  6051.84+-0.01 Density (g/cm^3)      =  5.204
  Mass x10^23 (kg)      =    48.685      Volume (x10^10 km^3)  = 92.843
  Sidereal rot. period  =   243.018484 d Sid. Rot. Rate (rad/s)= -0.00000029924
  Mean solar day        =   116.7490 d   Equ. gravity  m/s^2   =  8.870
  Mom. of Inertia       =     0.33       Core radius (km)      = ~3200
  Geometric Albedo      =     0.65       Potential Love # k2   = ~0.25
  GM (km^3/s^2)         = 324858.592     Equatorial Radius, Re = 6051.893 km
  GM 1-sigma (km^3/s^2) =    +-0.006     Mass ratio (Sun/Venus)= 408523.72
  Atmos. pressure (bar) =  90            Max. angular diam.    =   60.2"
  Mean Temperature (K)  = 735            Visual mag. V(1,0)    =   -4.40
  Obliquity to orbit    = 177.3 deg      Hill's sphere rad.,Rp =  167.1
  Sidereal orb. per., y =   0.61519726   Orbit speed, km/s     =   35.021
  Sidereal orb. per., d = 224.70079922   Escape speed, km/s    =   10.361
                                 Perihelion  Aphelion    Mean
  Solar Constant (W/m^2)         2759         2614       2650
  Maximum Planetary IR (W/m^2)    153         153         153
  Minimum Planetary IR (W/m^2)    153         153         153
*******************************************************************************


*******************************************************************************
Ephemeris / WWW_USER Fri Jan  3 20:00:22 2025 Pasadena, USA      / Horizons
*******************************************************************************
Target body name: Venus (299)                     {source: DE441}
Center body name: Solar System Barycenter (0)     {source: DE441}
Center-site name: BODY CENTER
*******************************************************************************
Start time      : A.D. 2010-Jan-01 00:00:00.0000 TDB
Stop  time      : A.D. 2030-Jan-01 00:00:00.0000 TDB
Step-size       : 1440 minutes
*******************************************************************************
Center geodetic : 0.0, 0.0, 0.0                   {E-lon(deg),Lat(deg),Alt(km)}
Center cylindric: 0.0, 0.0, 0.0                   {E-lon(deg),Dxy(km),Dz(km)}
Center radii    : (undefined)
Output units    : KM-S
Calendar mode   : Mixed Julian/Gregorian
Output type     : GEOMETRIC cartesian states
Output format   : 3 (position, velocity, LT, range, range-rate)
Reference frame : Ecliptic of J2000.0
*******************************************************************************
JDTDB
   X     Y     Z
   VX    VY    VZ
   LT    RG    RR
*******************************************************************************
$$SOE
2457021.500000000 = A.D. 2014-Dec-30 00:00:00.0000 TDB 
 X = 7.860398560771398E+07 Y =-7.578881232846060E+07 Z =-5.569142399237521E+06
 VX= 2.413432925242294E+01 VY= 2.504548814998232E+01 VZ=-1.049401216584736E+00
 LT= 3.646932080354930E+02 RG= 1.093322732528658E+08 RR= 4.327114770348784E-02
2457022.500000000 = A.D. 2014-Dec-31 00:00:00.0000 TDB 
 X = 8.065897061126122E+07 Y =-7.359616958695428E+07 Z =-5.657673135979682E+06
 VX= 2.343172468108402E+01 VY= 2.570689658652671E+01 VZ=-9.997900895216478E-01
 LT= 3.647043286032880E+02 RG= 1.093356071152194E+08 RR= 3.389707447825059E-02
2457023.500000000 = A.D. 2015-Jan-01 00:00:00.0000 TDB 
 X = 8.265246936386034E+07 Y =-7.134722660382052E+07 Z =-5.741883975121833E+06
 VX= 2.271112510359865E+01 VY= 2.634865252159944E+01 VZ=-9.494098289817661E-01
 LT= 3.647127439752996E+02 RG= 1.093381299802797E+08 RR= 2.449914557201065E-02
2457024.500000000 = A.D. 2015-Jan-02 00:00:00.0000 TDB 
 X = 8.458295027432159E+07 Y =-6.904370239636730E+07 Z =-5.821710089472458E+06
 VX= 2.197306918561186E+01 VY= 2.697027125660628E+01 VZ=-8.982981643457570E-01
 LT= 3.647184482135729E+02 RG= 1.093398400678927E+08 RR= 1.508386692458150E-02
2457025.500000000 = A.D. 2015-Jan-03 00:00:00.0000 TDB 
 X = 8.644892884522425E+07 Y =-6.668735724196663E+07 Z =-5.897089935115229E+06
 VX= 2.121810833657424E+01 VY= 2.757128245005071E+01 VZ=-8.464933638678129E-01
 LT= 3.647214372565736E+02 RG= 1.093407361604410E+08 RR= 5.657753651557174E-03
2457026.500000000 = A.D. 2015-Jan-04 00:00:00.0000 TDB 
 X = 8.824896875873686E+07 Y =-6.427999142371893E+07 Z =-5.967965296895515E+06
 VX= 2.044680635570898E+01 VY= 2.815123043762284E+01 VZ=-7.940342097782391E-01
 LT= 3.647217089213306E+02 RG= 1.093408176034862E+08 RR=-3.772673345273983E-03
2457027.500000000 = A.D. 2015-Jan-05 00:00:00.0000 TDB 
 X = 8.998168293153518E+07 Y =-6.182344394877872E+07 Z =-6.034281331741683E+06
 VX= 1.965973907063367E+01 VY= 2.870967454502745E+01 VZ=-7.409599731047720E-01
 LT= 3.647192629046103E+02 RG= 1.093400843061213E+08 RR=-1.320089084983837E-02
2457028.500000000 = A.D. 2015-Jan-06 00:00:00.0000 TDB 
 X = 9.164573453818820E+07 Y =-5.931959123996851E+07 Z =-6.095986609798294E+06
 VX= 1.885749396887620E+01 VY= 2.924618939340974E+01 VZ=-6.873103881783482E-01
 LT= 3.647141007830896E+02 RG= 1.093385367410221E+08 RR=-2.262037674239796E-02
2457029.500000000 = A.D. 2015-Jan-07 00:00:00.0000 TDB 
 X = 9.323983800239845E+07 Y =-5.677034580132959E+07 Z =-6.153033153343096E+06
 VX= 1.804066982225032E+01 VY= 2.976036519724531E+01 VZ=-6.331256268345715E-01
 LT= 3.647062260125475E+02 RG= 1.093361759442051E+08 RR=-3.202461342470105E-02
2457030.500000000 = A.D. 2015-Jan-08 00:00:00.0000 TDB 
 X = 9.476275995548299E+07 Y =-5.417765485826345E+07 Z =-6.205376473462392E+06
 VX= 1.720987630417213E+01 VY= 3.025180805460280E+01 VZ=-5.784462723222301E-01
 LT= 3.646956439260651E+02 RG= 1.093330035144878E+08 RR=-4.140709127098869E-02
2457031.500000000 = A.D. 2015-Jan-09 00:00:00.0000 TDB 
 X = 9.621332016148768E+07 Y =-5.154349897292881E+07 Z =-6.252975604459550E+06
 VX= 1.636573359997452E+01 VY= 3.072014022964827E+01 VZ=-5.233132929224258E-01
 LT= 3.646823617312269E+02 RG= 1.093290216126496E+08 RR=-5.076131211224499E-02
2457032.500000000 = A.D. 2015-Jan-10 00:00:00.0000 TDB 
 X = 9.759039240833215E+07 Y =-4.886989063557041E+07 Z =-6.295793135971874E+06
 VX= 1.550887201027887E+01 VY= 3.116500042725350E+01 VZ=-4.677680152823456E-01
 LT= 3.646663885063121E+02 RG= 1.093242329602903E+08 RR=-6.008079275721277E-02
2457033.500000000 = A.D. 2015-Jan-11 00:00:00.0000 TDB 
 X = 9.889290536438851E+07 Y =-4.615887283246791E+07 Z =-6.333795242771264E+06
 VX= 1.463993154748613E+01 VY= 3.158604405956207E+01 VZ=-4.118520974679161E-01
 LT= 3.646477351954671E+02 RG= 1.093186408383822E+08 RR=-6.935906855011617E-02
2457034.500000000 = A.D. 2015-Jan-12 00:00:00.0000 TDB 
 X = 1.001198433999018E+08 Y =-4.341251759120642E+07 Z =-6.366951712224761E+06
 VX= 1.375956152545187E+01 VY= 3.198294350435914E+01 VZ=-3.556075017400122E-01
 LT= 3.646264146028454E+02 RG= 1.093122490855141E+08 RR=-7.858969696243633E-02
2457035.500000000 = A.D. 2015-Jan-13 00:00:00.0000 TDB 
 X = 1.012702473726667E+08 Y =-4.063292450398380E+07 Z =-6.395235969391085E+06
 VX= 1.286842014241249E+01 VY= 3.235538835508356E+01 VZ=-2.990764670592121E-01
 LT= 3.646024413857106E+02 RG= 1.093050620958231E+08 RR=-8.776626121415626E-02
2457036.500000000 = A.D. 2015-Jan-14 00:00:00.0000 TDB 
 X = 1.023432153773793E+08 Y =-3.782221922968399E+07 Z =-6.418625099730125E+06
 VX= 1.196717405723231E+01 VY= 3.270308566231262E+01 VZ=-2.423014813243736E-01
 LT= 3.645758320464906E+02 RG= 1.092970848166126E+08 RR=-9.688237391919020E-02
2457037.500000000 = A.D. 2015-Jan-15 00:00:00.0000 TDB 
 X = 1.033379034580914E+08 Y =-3.498255197546085E+07 Z =-6.437099869402498E+06
 VX= 1.105649795904402E+01 VY= 3.302576016654228E+01 VZ=-1.853252533508059E-01
 LT= 3.645466049237781E+02 RG= 1.092883227456543E+08 RR=-1.059316807496045E-01
2457038.500000000 = A.D. 2015-Jan-16 00:00:00.0000 TDB 
 X = 1.042535262831990E+08 Y =-3.211609595859241E+07 Z =-6.450644743137008E+06
 VX= 1.013707413035730E+01 VY= 3.332315452207767E+01 VZ=-1.281906845939513E-01
 LT= 3.645147801822741E+02 RG= 1.092787819281736E+08 RR=-1.149078641146132E-01
2457039.500000000 = A.D. 2015-Jan-17 00:00:00.0000 TDB 
 X = 1.050893577824030E+08 Y =-2.922504584938193E+07 Z =-6.459247899644258E+06
 VX= 9.209592003713219E+00 VY= 3.359502951184096E+01 VZ=-7.094084062497963E-02
 LT= 3.644803798016684E+02 RG= 1.092684689535158E+08 RR=-1.238046468525535E-01
2457040.500000000 = A.D. 2015-Jan-18 00:00:00.0000 TDB 
 X = 1.058447317450904E+08 Y =-2.631161619589917E+07 Z =-6.462901244555302E+06
 VX= 8.274747711964471E+00 VY= 3.384116425289602E+01 VZ=-1.361892236502982E-02
 LT= 3.644434275644542E+02 RG= 1.092573909514927E+08 RR=-1.326157959376298E-01
2457041.500000000 = A.D. 2015-Jan-19 00:00:00.0000 TDB 
 X = 1.065190423795868E+08 Y =-2.337803983137201E+07 Z =-6.461600420864884E+06
 VX= 7.333243632298028E+00 VY= 3.406135639251149E+01 VZ= 4.373176290865466E-02
 LT= 3.644039490426736E+02 RG= 1.092455555884099E+08 RR=-1.413351261802378E-01
2457042.500000000 = A.D. 2015-Jan-20 00:00:00.0000 TDB 
 X = 1.071117448327465E+08 Y =-2.042656626505492E+07 Z =-6.455344816859869E+06
 VX= 6.385787924059071E+00 VY= 3.425542229451362E+01 VZ= 1.010678307865671E-01
 LT= 3.643619715835985E+02 RG= 1.092329710627731E+08 RR=-1.499565039449422E-01
2457043.500000000 = A.D. 2015-Jan-21 00:00:00.0000 TDB 
 X = 1.076223556693442E+08 Y =-1.745946005742488E+07 Z =-6.444137571513271E+06
 VX= 5.433094060498202E+00 VY= 3.442319721572863E+01 VZ= 1.583458491623801E-01
 LT= 3.643175242943332E+02 RG= 1.092196461006729E+08 RR=-1.584738508753355E-01
2457044.500000000 = A.D. 2015-Jan-22 00:00:00.0000 TDB 
 X = 1.080504533107546E+08 Y =-1.447899918056593E+07 Z =-6.427985577326211E+06
 VX= 4.475880354575146E+00 VY= 3.456453547232518E+01 VZ= 2.155223678747085E-01
 LT= 3.642706380253496E+02 RG= 1.092055899508478E+08 RR=-1.668811476077827E-01
